ONEWEB-0512             
1 54130U 22138T   25006.60906677  .00000118  00000+0  26237-3 0  9995
2 54130  87.9160  49.6819 0001302  95.9585 264.1696 13.19726740107350
ONEWEB-0513             
1 54131U 22138U   25006.65566255 -.00000032  00000+0 -11196-3 0  9990
2 54131  87.9159  49.6622 0001321  85.1320 274.9964 13.19725867108111
ONEWEB-0514             
1 54132U 22138V   25006.16996505  .00000031  00000+0  44561-4 0  9992
2 54132  87.9156  49.7470 0001822  94.4439 265.6902 13.19725947107310
ONEWEB-0515             
1 54133U 22138W   25006.53342035  .00000079  00000+0  16187-3 0  9991
2 54133  87.9247  19.1923 0002680 104.5063 255.6368 13.20771935110651
ONEWEB-0516             
1 54134U 22138X   25006.59959000  .00000072  00000+0  14704-3 0  9990
2 54134  87.9162  49.6859 0001723 101.5939 258.5387 13.19727300107373
ONEWEB-0517             
1 54135U 22138Y   25006.65487059  .00000023  00000+0  24637-4 0  9991
2 54135  87.9154  49.6458 0001808  84.0743 276.0596 13.19725475108258
ONEWEB-0518             
1 54136U 22138Z   25006.59800753  .00000089  00000+0  19003-3 0  9997
2 54136  87.9160  49.6829 0001750  93.4346 266.6987 13.19726822107375
ONEWEB-0519             
1 54137U 22138AA  25006.54746462  .00000063  00000+0  12424-3 0  9991
2 54137  87.9152  49.6612 0001777  87.2437 272.8899 13.19725714107378
